ONEWEB-0298             
1 49087U 21075N   23319.92543290  .00000036  00000+0  59155-4 0  9992
2 49087  87.9251 193.5699 0001830  80.5021 279.6317 13.17650384109274
ONEWEB-0299             
1 49088U 21075P   23319.92753743  .00000095  00000+0  21153-3 0  9990
2 49088  87.9231 193.5543 0001852  83.3841 276.7502 13.17648593109257
ONEWEB-0300             
1 49089U 21075Q   23319.90643081 -.00001659  00000+0 -46479-2 0  9998
2 49089  87.9072 178.4672 0001997  77.6693 282.4659 13.12419684111349
ONEWEB-0301             
1 49090U 21075R   23319.89147892  .00008942  00000+0  24767-1 0  9992
2 49090  87.9025 178.4741 0002705  80.1726 279.9708 13.12521391110704
ONEWEB-0302             
1 49091U 21075S   23319.87978590  .00009285  00000+0  25716-1 0  9994
2 49091  87.9030 178.4731 0001365  78.1625 281.9656 13.12529585110681
ONEWEB-0304             
1 49092U 21075T   23319.90433795  .00000028  00000+0  38207-4 0  9990
2 49092  87.9231 193.5698 0001794  80.0509 280.0825 13.17648617109223
ONEWEB-0305             
1 49093U 21075U   23319.89378637  .00000068  00000+0  14230-3 0  9995
2 49093  87.9233 193.5611 0002056  87.6428 272.4939 13.17647590109259
ONEWEB-0308             
1 49094U 21075V   23319.87244076  .00007586  00000+0  21014-1 0  9991
2 49094  87.9024 178.4757 0001302  67.5715 292.5552 13.12509617110696
